OBJECT_NAME,OBJECT_ID,EPOCH,MEAN_MOTION,ECCENTRICITY,INCLINATION,RA_OF_ASC_NODE,ARG_OF_PERICENTER,MEAN_ANOMALY,EPHEMERIS_TYPE,CLASSIFICATION_TYPE,NORAD_CAT_ID,ELEMENT_SET_NO,REV_AT_EPOCH,BSTAR,MEAN_MOTION_DOT,MEAN_MOTION_DDOT
STARLINK-2154,2021-017V,2024-02-07T16:50:33.349632,15.06399693,.0001837,53.0545,27.8308,66.7244,293.3938,0,U,47741,999,16303,.16462E-3,.2171E-4,0
STARLINK-2156,2021-017W,2024-02-07T15:32:15.432576,15.06408065,.0001331,53.0554,18.0676,84.8610,275.2531,0,U,47742,999,16321,.20451E-3,.2767E-4,0
STARLINK-2157,2021-017X,2024-02-07T16:09:25.795872,15.06400537,.0001495,53.0546,17.9573,87.2246,272.8914,0,U,47743,999,16319,.94992E-4,.1134E-4,0
STARLINK-2159,2021-017Z,2024-02-07T16:18:42.560064,15.06405042,.0001289,53.0536,27.9228,87.2228,272.8909,0,U,47745,999,16302,.35901E-3,.5071E-4,0
STARLINK-2160,2021-017AA,2024-02-07T09:45:55.693440,15.06410907,.0001515,53.0549,29.1585,106.4956,253.6200,0,U,47746,999,16297,.36285E-3,.5129E-4,0
STARLINK-2162,2021-017AC,2024-02-07T15:53:30.011424,15.06404240,.0001628,53.0552,18.0066,79.5097,280.6076,0,U,47748,999,16316,.89547E-4,.1053E-4,0
STARLINK-2163,2021-017AD,2024-02-07T08:17:01.814496,15.06411088,.0001483,53.0553,19.4214,84.2883,275.8275,0,U,47749,999,16311,.27997E-3,.3892E-4,0
STARLINK-2164,2021-017AE,2024-02-07T15:42:53.177760,15.06395635,.0001667,53.0554,18.0378,94.5292,265.5887,0,U,47750,999,16316,.54167E-4,.525E-5,0
STARLINK-2168,2021-017AF,2024-02-07T08:28:57.597888,15.06425595,.0001196,53.0539,9.3860,97.5142,262.5982,0,U,47751,999,16326,.67408E-3,.978E-4,0
STARLINK-2170,2021-017AH,2024-02-07T16:39:56.655936,15.06401050,.0001705,53.0535,27.8613,77.9301,282.1879,0,U,47753,999,16307,.20363E-3,.2753E-4,0
STARLINK-2174,2021-017AL,2024-02-07T15:52:10.144992,15.06407835,.0001718,53.0558,28.0025,91.6836,268.4350,0,U,47756,999,16307,.31661E-3,.4438E-4,0
STARLINK-2175,2021-017AM,2024-02-07T09:08:46.820544,15.06419566,.0001541,53.0552,29.2645,89.9720,270.1446,0,U,47757,999,16297,.30884E-3,.4324E-4,0
STARLINK-2178,2021-017AQ,2024-02-07T06:44:08.985984,15.06411498,.0001594,53.0552,39.7124,91.7489,268.3682,0,U,47760,999,16285,.39822E-3,.5657E-4,0
STARLINK-2179,2021-017AR,2024-02-07T09:03:28.432224,15.06416667,.0001522,53.0551,29.2817,95.1925,264.9238,0,U,47761,999,16298,.3082E-3,.4314E-4,0
STARLINK-2180,2021-017AS,2024-02-07T17:38:59.832672,15.06400635,.0001451,53.0546,42.6834,86.2550,273.8604,0,U,47762,999,16284,.86981E-4,.1014E-4,0
STARLINK-2181,2021-017AT,2024-02-07T16:26:00.643488,15.06405661,.0001344,53.0539,32.9004,79.0680,281.0460,0,U,47763,999,16295,.33568E-3,.4723E-4,0
STARLINK-2182,2021-017AU,2024-02-07T17:17:45.122496,15.06404852,.0001497,53.0549,42.7394,86.3789,273.7371,0,U,47764,999,16287,.58665E-4,.593E-5,0
STARLINK-2184,2021-017AW,2024-02-07T17:42:56.452032,15.06400106,.0001587,53.0552,42.6512,89.2572,270.8599,0,U,47766,999,16281,-.29705E-4,-.724E-5,0
STARLINK-2185,2021-017AX,2024-02-07T16:45:14.998464,15.06402137,.0001186,53.0549,27.8428,90.5481,269.5644,0,U,47767,999,16308,.14933E-3,.1944E-4,0
STARLINK-2189,2021-017AY,2024-02-07T17:44:22.295616,15.06414135,.0001676,53.0540,43.0532,88.3331,271.7850,0,U,47768,999,16284,.65888E-4,.7E-5,0
STARLINK-2192,2021-017AZ,2024-02-07T14:45:49.799808,15.06397556,.0001298,53.0565,8.2141,95.8970,264.2167,0,U,47769,999,16334,-.17195E-3,-.2841E-4,0
STARLINK-2193,2021-017BA,2024-02-07T16:32:38.894784,15.06399079,.0001536,53.0554,22.8820,80.9153,279.2009,0,U,47770,999,16312,.23837E-4,.74E-6,0
STARLINK-2194,2021-017BB,2024-02-07T05:39:47.940192,15.06428362,.0001683,53.0545,24.9144,89.4819,270.6363,0,U,47771,999,16306,.69277E-3,.1006E-3,0
STARLINK-2195,2021-017BC,2024-02-07T16:33:18.343296,15.06407276,.000134,53.0539,37.8775,83.1882,276.9259,0,U,47772,999,16289,.72166E-4,.794E-5,0
