STARLINK-2154           
1 47741U 21017V   24038.70177488  .00002171  00000+0  16462-3 0  9995
2 47741  53.0545  27.8308 0001837  66.7244 293.3938 15.06399693162404
STARLINK-2156           
1 47742U 21017W   24038.64740084  .00002767  00000+0  20451-3 0  9991
2 47742  53.0554  18.0676 0001331  84.8610 275.2531 15.06408065162538
STARLINK-2157           
1 47743U 21017X   24038.67321523  .00001134  00000+0  94992-4 0  9997
2 47743  53.0546  17.9573 0001495  87.2246 272.8914 15.06400537162531
STARLINK-2159           
1 47745U 21017Z   24038.67965926  .00005071  00000+0  35901-3 0  9998
2 47745  53.0536  27.9228 0001289  87.2228 272.8909 15.06405042162395
STARLINK-2160           
1 47746U 21017AA  24038.40689460  .00005129  00000+0  36285-3 0  9996
2 47746  53.0549  29.1585 0001515 106.4956 253.6200 15.06410907162975
STARLINK-2162           
1 47748U 21017AC  24038.66215291  .00001053  00000+0  89547-4 0  9995
2 47748  53.0552  18.0066 0001628  79.5097 280.6076 15.06404240162539
STARLINK-2163           
1 47749U 21017AD  24038.34515989  .00003892  00000+0  27997-3 0  9991
2 47749  53.0553  19.4214 0001483  84.2883 275.8275 15.06411088163116
STARLINK-2164           
1 47750U 21017AE  24038.65478215  .00000525  00000+0  54167-4 0  9997
2 47750  53.0554  18.0378 0001667  94.5292 265.5887 15.06395635162536
STARLINK-2168           
1 47751U 21017AF  24038.35344442  .00009780  00000+0  67408-3 0  9992
2 47751  53.0539   9.3860 0001196  97.5142 262.5982 15.06425595163266
STARLINK-2170           
1 47753U 21017AH  24038.69440574  .00002753  00000+0  20363-3 0  9996
2 47753  53.0535  27.8613 0001705  77.9301 282.1879 15.06401050162396
STARLINK-2174           
1 47756U 21017AL  24038.66122853  .00004438  00000+0  31661-3 0  9998
2 47756  53.0558  28.0025 0001718  91.6836 268.4350 15.06407835162392
STARLINK-2175           
1 47757U 21017AM  24038.38109746  .00004324  00000+0  30884-3 0  9994
2 47757  53.0552  29.2645 0001541  89.9720 270.1446 15.06419566162978
STARLINK-2178           
1 47760U 21017AQ  24038.28065956  .00005657  00000+0  39822-3 0  9992
2 47760  53.0552  39.7124 0001594  91.7489 268.3682 15.06411498162855
STARLINK-2179           
1 47761U 21017AR  24038.37741241  .00004314  00000+0  30820-3 0  9999
2 47761  53.0551  29.2817 0001522  95.1925 264.9238 15.06416667162988
STARLINK-2180           
1 47762U 21017AS  24038.73541473  .00001014  00000+0  86981-4 0  9999
2 47762  53.0546  42.6834 0001451  86.2550 273.8604 15.06400635162194
STARLINK-2181           
1 47763U 21017AT  24038.68472967  .00004723  00000+0  33568-3 0  9997
2 47763  53.0539  32.9004 0001344  79.0680 281.0460 15.06405661162323
STARLINK-2182           
1 47764U 21017AU  24038.72066114  .00000593  00000+0  58665-4 0  9993
2 47764  53.0549  42.7394 0001497  86.3789 273.7371 15.06404852162191
STARLINK-2184           
1 47766U 21017AW  24038.73815338 -.00000724  00000+0 -29705-4 0  9997
2 47766  53.0552  42.6512 0001587  89.2572 270.8599 15.06400106162198
STARLINK-2185           
1 47767U 21017AX  24038.69809026  .00001944  00000+0  14933-3 0  9999
2 47767  53.0549  27.8428 0001186  90.5481 269.5644 15.06402137162401
STARLINK-2189           
1 47768U 21017AY  24038.73914694  .00000700  00000+0  65888-4 0  9998
2 47768  53.0540  43.0532 0001676  88.3331 271.7850 15.06414135162193
STARLINK-2192           
1 47769U 21017AZ  24038.61515972 -.00002841  00000+0 -17195-3 0  9999
2 47769  53.0565   8.2141 0001298  95.8970 264.2167 15.06397556163345
STARLINK-2193           
1 47770U 21017BA  24038.68933906  .00000074  00000+0  23837-4 0  9994
2 47770  53.0554  22.8820 0001536  80.9153 279.2009 15.06399079162469
STARLINK-2194           
1 47771U 21017BB  24038.23597153  .00010060  00000+0  69277-3 0  9999
2 47771  53.0545  24.9144 0001683  89.4819 270.6363 15.06428362163061
STARLINK-2195           
1 47772U 21017BC  24038.68979564  .00000794  00000+0  72166-4 0  9994
2 47772  53.0539  37.8775 0001340  83.1882 276.9259 15.06407276162253
